{
    "links": {
        "self": "http://www.neowsapp.com/rest/v1/neo/3976531?api_key=iIulBulltgU6a56xZRHN4H3l9WmuAYTsLGpBGhQ2"
    },
    "id": "3976531",
    "neo_reference_id": "3976531",
    "name": "(2020 AO1)",
    "designation": "2020 AO1",
    "nasa_jpl_url": "http://ssd.jpl.nasa.gov/sbdb.cgi?sstr=3976531",
    "absolute_magnitude_h": 23.7,
    "estimated_diameter": {
        "kilometers": {
            "estimated_diameter_min": 0.0483676488,
            "estimated_diameter_max": 0.1081533507
        },
        "meters": {
            "estimated_diameter_min": 48.3676488219,
            "estimated_diameter_max": 108.1533506775
        },
        "miles": {
            "estimated_diameter_min": 0.0300542543,
            "estimated_diameter_max": 0.0672033557
        },
        "feet": {
            "estimated_diameter_min": 158.6865169607,
            "estimated_diameter_max": 354.8338390368
        }
    },
    "is_potentially_hazardous_asteroid": false,
    "close_approach_data": [
        {
            "close_approach_date": "1959-06-10",
            "close_approach_date_full": "1959-Jun-10 16:56",
            "epoch_date_close_approach": -333270240000,
            "relative_velocity": {
                "kilometers_per_second": "15.4692491216",
                "kilometers_per_hour": "55689.2968377528",
                "miles_per_hour": "34603.1633601026"
            },
            "miss_distance": {
                "astronomical": "0.0664626946",
                "lunar": "25.8539881994",
                "kilometers": "9942677.546620502",
                "miles": "6178093.3454748476"
            },
            "orbiting_body": "Earth"
        },
        {
            "close_approach_date": "2020-01-12",
            "close_approach_date_full": "2020-Jan-12 19:18",
            "epoch_date_close_approach": 1578856680000,
            "relative_velocity": {
                "kilometers_per_second": "17.7190575181",
                "kilometers_per_hour": "63788.6070652867",
                "miles_per_hour": "39635.7597623166"
            },
            "miss_distance": {
                "astronomical": "0.0218663604",
                "lunar": "8.5060141956",
                "kilometers": "3271160.940492348",
                "miles": "2032605.1552684824"
            },
            "orbiting_body": "Earth"
        },
        {
            "close_approach_date": "2020-05-24",
            "close_approach_date_full": "2020-May-24 19:15",
            "epoch_date_close_approach": 1590347700000,
            "relative_velocity": {
                "kilometers_per_second": "17.7852812332",
                "kilometers_per_hour": "64027.0124393753",
                "miles_per_hour": "39783.8955904552"
            },
            "miss_distance": {
                "astronomical": "0.0601653456",
                "lunar": "23.4043194384",
                "kilometers": "9000607.549573872",
                "miles": "5592718.1935165536"
            },
            "orbiting_body": "Mars"
        },
        {
            "close_approach_date": "2170-06-28",
            "close_approach_date_full": "2170-Jun-28 11:17",
            "epoch_date_close_approach": 6326853420000,
            "relative_velocity": {
                "kilometers_per_second": "14.3830091542",
                "kilometers_per_hour": "51778.8329549555",
                "miles_per_hour": "32173.3531769278"
            },
            "miss_distance": {
                "astronomical": "0.095933816",
                "lunar": "37.318254424",
                "kilometers": "14351494.53457192",
                "miles": "8917605.188935696"
            },
            "orbiting_body": "Venus"
        }
    ],
    "orbital_data": {
        "orbit_id": "5",
        "orbit_determination_date": "2020-01-10 05:41:13",
        "first_observation_date": "2020-01-04",
        "last_observation_date": "2020-01-09",
        "data_arc_in_days": 5,
        "observations_used": 89,
        "orbit_uncertainty": "8",
        "minimum_orbit_intersection": ".001738",
        "jupiter_tisserand_invariant": "3.662",
        "epoch_osculation": "2458853.5",
        "eccentricity": ".627665811034542",
        "semi_major_axis": "1.912341039204434",
        "inclination": "4.190948652605958",
        "ascending_node_longitude": "294.6383345685761",
        "orbital_period": "965.9317570131225",
        "perihelion_distance": ".712029949857544",
        "perihelion_argument": "252.1142817346563",
        "aphelion_distance": "3.112652128551324",
        "perihelion_time": "2458905.854643044638",
        "mean_anomaly": "340.4875744489954",
        "mean_motion": ".3726971366105621",
        "equinox": "J2000",
        "orbit_class": {
            "orbit_class_type": "APO",
            "orbit_class_description": "Near-Earth asteroid orbits which cross the Earth’s orbit similar to that of 1862 Apollo",
            "orbit_class_range": "a (semi-major axis) > 1.0 AU; q (perihelion) < 1.017 AU"
        }
    },
    "is_sentry_object": false
}